0 BLOCK DM-SL R/B
1 39021U 12069B   13283.31799518 -.00000121  00000-0  10000-3 0  1613
2 39021 000.7070 039.4032 6868636 104.8749 291.2864 02.21899140  6899
0 BLOCK DM-SL R/B
1 39021U 12069B   13283.37428947 -.00000093  00000-0  10000-3 0  1623
2 39021 000.7254 040.8998 6866620 103.3982 336.2487 02.21895863  6905
0 BLOCK DM-SL R/B
1 39021U 12069B   13286.47021676 -.00000096  00000-0  10000-3 0  1628
2 39021 000.7073 038.6076 6868560 106.6471 289.3710 02.21898920  6960
0 BLOCK DM-SL R/B
1 39021U 12069B   13288.27141850 -.00000066  00000-0  10000-3 0  1633
2 39021 000.7058 038.5400 6867028 107.2640 288.1939 02.21897779  7003
0 BLOCK DM-SL R/B
1 39021U 12069B   13290.07261427 -.00000054  00000-0  10000-3 0  1645
2 39021 000.7060 038.1053 6866531 108.2493 287.0309 02.21897589  7043
0 BLOCK DM-SL R/B
1 39021U 12069B   13290.13202122  .00000050  00000-0  10000-3 0  1655
2 39021 000.7275 039.8983 6865502 106.4855 334.4864 02.21895592  7056
0 BLOCK DM-SL R/B
1 39021U 12069B   13291.42346592 -.00000065  00000-0  10000-3 0  1655
2 39021 000.7062 037.6997 6865985 109.0631 286.1235 02.21897549  7078
0 BLOCK DM-SL R/B
1 39021U 12069B   13291.42348329 -.00000065  00000-0  10000-3 0  1666
2 39021 000.7092 037.8512 6866575 108.9201 286.1356 02.21897419  7073
0 BLOCK DM-SL R/B
1 39021U 12069B   13292.32403675 -.00000080  00000-0  10000-3 0  1670
2 39021 000.7093 037.7943 6865999 109.2483 285.5195 02.21897444  7090
0 BLOCK DM-SL R/B
1 39021U 12069B   13293.67488290 -.00000107  00000-0  10000-3 0  1686
2 39021 000.7132 037.8397 6866469 109.6283 284.6137 02.21897609  7126
0 BLOCK DM-SL R/B
1 39021U 12069B   13295.47597198 -.00000134  00000-0  10000-3 0  1695
2 39021 000.7125 037.8077 6865864 110.2064 283.3762 02.21898018  7165
